1 42959U 17061E   24048.99729821  .00000162  00000-0  50802-4 0  9997
2 42959  86.3989  20.5263 0001952  84.4630 275.6788 14.34218369332950
1 42960U 17061F   24049.01632549  .00000148  00000-0  45666-4 0  9999
2 42960  86.3989  20.5343 0002017  93.6732 266.4694 14.34214901332973
1 42961U 17061G   24048.95290093 -.00000017  00000-0 -13046-4 0  9990
2 42961  86.3983  20.5465 0001899  91.8569 268.2844 14.34215035332952
1 42962U 17061H   24048.91484012  .00000184  00000-0  58621-4 0  9994
2 42962  86.3986  20.5649 0002079  79.6884 280.4546 14.34215414332962
1 42963U 17061J   24048.92118474  .00000061  00000-0  14885-4 0  9990
2 42963  86.3990  20.6106 0002059  91.8292 268.3139 14.34215441332978
1 42964U 17061K   24048.90849479  .00000584  00000-0  20161-3 0  9998
2 42964  86.3988  20.6614 0001877  87.3329 272.8082 14.34215762332982
1 43070U 17083A   24048.46400990  .00000544  00000-0  18703-3 0  9998
2 43070  86.3993 317.5690 0002338  89.7260 270.4204 14.34222706322213
1 43071U 17083B   24048.83823018 -.00000012  00000-0 -11257-4 0  9990
2 43071  86.3981 317.1450 0001731  79.6568 280.4822 14.34217362322259
